[Satellite]
VERSION=1.1
NAME=NOAA 14 [-]
NICKNAME=NOAA 14 [-]
TLE1=1 23455U 94089A   19317.59345831 -.00000022  00000-0  10487-4 0  9997
TLE2=2 23455  98.5783  13.1456 0009929 155.8159 204.3483 14.14136633283126
STATUS=2
